AKEBONO (EXOS-D)        
1 19822U 89016A   20252.53253714  .00026724  39292-6  46016-3 0  9999
2 19822  75.0086 325.9144 1716094 169.5704 194.6360 12.11738478 49653
HST                     
1 20580U 90037B   20252.05560872  .00000402  00000-0  13411-4 0  9998
2 20580  28.4693 133.3118 0002534 259.2306  77.4681 15.09427973468457
POLAR                   
1 23802U 96013A   20252.10109483  .00000236  00000-0  00000+0 0  9991
2 23802  78.7082 248.7736 6246646 280.5581  18.8650  1.29846477117464
SWAS                    
1 25560U 98071A   20252.21570377  .00000099  00000-0  17848-4 0  9996
2 25560  69.8992 175.4110 0010038 230.8970 129.1294 14.93903391181609
ORSTED                  
1 25635U 99008B   20252.54952353  .00000034  00000-0  15159-4 0  9996
2 25635  96.4458 257.2567 0140475  85.4664 276.2566 14.48220775136641
CXO                     
1 25867U 99040B   20253.79125035  .00000671  00000-0  00000+0 0  9997
2 25867  61.0237 264.7700 7870828 227.2245   0.6280  0.37804787 20517
XMM-NEWTON              
1 25989U 99066A   20253.31474978  .00000180  00000-0  00000+0 0  9996
2 25989  71.0885 318.8463 7004945  92.5654   0.1495  0.50130535 26804
TERRA                   
1 25994U 99068A   20252.46657492  .00000072  00000-0  26048-4 0  9998
2 25994  98.2068 325.5762 0001349 100.5159 259.6195 14.57114321102405
CLUSTER II-FM7 (SAMBA)  
1 26410U 00041A   20253.03861174 -.00000093  00000-0  00000-0 0  9993
2 26410 132.0577 342.2779 4493501 185.4000   0.2353  0.44218300 10958
CLUSTER II-FM6 (SALSA)  
1 26411U 00041B   20253.13626323 -.00000208  00000-0  00000-0 0  9998
2 26411 132.1644 343.6470 5828374 191.0614   0.2602  0.44222476 11006
CLUSTER II-FM5 (RUMBA)  
1 26463U 00045A   20253.09548660 -.00000135  00000-0  00000-0 0  9990
2 26463 135.8024 343.3521 5425899 190.8691   0.2723  0.44221476 10895
CLUSTER II-FM8 (TANGO)  
1 26464U 00045B   20253.02769474 -.00000093  00000-0  00000-0 0  9995
2 26464 132.0596 342.2708 4493581 185.4013   0.2154  0.44220542 10963
ODIN                    
1 26702U 01007A   20252.52473972  .00000185  00000-0  16027-4 0  9999
2 26702  97.5533 268.0985 0010631 352.1717   7.9343 15.08145199 68739
TIMED                   
1 26998U 01055B   20252.14975715  .00000069  00000-0  11542-4 0  9997
2 26998  74.0720 128.5736 0001724 228.4781 131.6252 14.88212277 16845
RHESSI                  
1 27370U 02004A   20252.52581689  .00001776  00000-0  58634-4 0  9991
2 27370  38.0338  32.6880 0013012 293.6704  66.2701 15.33072268 27087
INTEGRAL                
1 27540U 02048A   20251.93977192  .00000517  00000-0  00000-0 0  9992
2 27540  56.5101 107.2404 8982664 293.8736   1.9236  0.37581974 18731
CORIOLIS                
1 27640U 03001A   20252.55532918 -.00000019  00000-0  11764-4 0  9996
2 27640  98.7271 260.7279 0014625 153.9664 315.1714 14.19046030915229
SORCE                   
1 27651U 03004A   20252.40036088  .00000027  00000-0  16908-4 0  9995
2 27651  39.9946 227.4517 0023594 242.8686 116.9696 14.89143323956567
MOST                    
1 27843U 03031D   20252.52194277 -.00000027  00000-0  76558-5 0  9995
2 27843  98.7109 258.6151 0009424 208.5512 151.5150 14.20616769891390
SCISAT 1                
1 27858U 03036A   20252.48983378 -.00000006  00000-0  42280-5 0  9991
2 27858  73.9348  21.0853 0008536 216.7015 143.3575 14.77299650919916
SWIFT                   
1 28485U 04047A   20252.12581847  .00000783  00000-0  22940-4 0  9998
2 28485  20.5559 166.1108 0011080  23.8203 336.2742 15.04668458865942
FORMOSAT-3 FM6          
1 29047U 06011A   20252.51427012 -.00000160  00000-0 -46028-4 0  9996
2 29047  71.9770 300.4607 0052407 278.4089  81.1109 14.28745662753180
FORMOSAT-3 FM1          
1 29048U 06011B   20252.32497681  .00000058  00000-0  39401-4 0  9996
2 29048  71.9658 211.6552 0045474 238.5531 121.1156 14.28715103755640
FORMOSAT-3 FM5          
1 29049U 06011C   20252.53139530 -.00000035  00000-0  25163-5 0  9993
2 29049  72.0223  23.3536 0036733 263.3210  96.3745 14.28795386751463
FORMOSAT-3 FM3          
1 29050U 06011D   20252.45068906  .00000088  00000-0  28810-4 0  9992
2 29050  72.0164 161.1325 0049673 176.1997 183.9543 14.58943833768435
FORMOSAT-3 FM4          
1 29051U 06011E   20252.52978739  .00000043  00000-0  32536-4 0  9996
2 29051  72.0038 285.2559 0066914 142.5918 217.9905 14.28827620754055
FORMOSAT-3 FM2          
1 29052U 06011F   20252.59324837  .00000091  00000-0  51880-4 0  9994
2 29052  72.0369 359.5781 0041308 223.8437 135.9419 14.28933779751570
CLOUDSAT                
1 29107U 06016A   20252.56846453  .00000067  00000-0  22665-4 0  9992
2 29107  98.2370 199.5776 0002785 108.7550 251.3953 14.62453935764470
CALIPSO                 
1 29108U 06016B   20252.56806285  .00000069  00000-0  23083-4 0  9999
2 29108  98.2354 199.3438 0001280  77.4510 282.6835 14.62436832764465
HINODE (SOLAR-B)        
1 29479U 06041A   20252.54040378  .00000023  00000-0  13374-4 0  9991
2 29479  98.1595 263.6769 0018423 106.0867 254.2366 14.65083574746058
SJ-6C                   
1 29505U 06046A   20252.52574002  .00000282  00000-0  31157-4 0  9996
2 29505  97.8152 265.9581 0006032 111.5417 248.6448 14.94907491756026
SJ-6D                   
1 29506U 06046B   20252.48104199  .00000307  00000-0  34633-4 0  9998
2 29506  97.8359 266.0588 0001883 157.8415 202.2880 14.93533562755562
AGILE                   
1 31135U 07013A   20252.28557296  .00002153  00000-0  30989-4 0  9993
2 31135   2.4674 266.1555 0011690  30.4565 329.6167 15.32497167377385
AIM                     
1 31304U 07015A   20252.40230212  .00000562  00000-0  35166-4 0  9997
2 31304  97.8946 138.2395 0006646  77.5240 282.6734 15.13706066733239
FGRST (GLAST)           
1 33053U 08029A   20252.43564389  .00000445  00000-0  86209-5 0  9999
2 33053  25.5821 255.2612 0011990 247.3919 112.5348 15.11366480675880
WISE                    
1 36119U 09071A   20252.19567533  .00000555  00000-0  21506-4 0  9990
2 36119  97.3220 287.3316 0004314  91.1031 269.0704 15.30221823596456
SDO                     
1 36395U 10005A   20252.15699497 -.00000072  00000-0  00000+0 0  9992
2 36395  30.4573 119.9182 0001223  12.5860 169.7679  1.00276294 38895
CRYOSAT 2               
1 36508U 10013A   20252.57913620  .00000088  00000-0  21048-4 0  9996
2 36508  92.0262 127.8949 0003828 302.1176  57.9659 14.51905270552339
X-SAT                   
1 37389U 11015C   20252.40757103 -.00000005  00000-0  15946-4 0  9991
2 37389  98.4277 304.4125 0015097  50.8920 309.3600 14.24381357488092
GCOM-W1 (SHIZUKU)       
1 38337U 12025A   20252.58627718  .00000026  00000-0  15752-4 0  9991
2 38337  98.2005 191.3775 0002607  77.4370  95.6969 14.57076309442114
NUSTAR                  
1 38358U 12031A   20252.14573871  .00000907  00000-0  20912-4 0  9995
2 38358   6.0285  28.3397 0011728 359.2650   0.7461 14.88336127448356
NEOSSAT                 
1 39089U 13009D   20252.55538097  .00000001  00000-0  15477-4 0  9994
2 39089  98.4624  92.7236 0012210  44.8960 315.3210 14.34520494394467
IRIS                    
1 39197U 13033A   20252.49922823  .00000045  00000-0  13396-4 0  9994
2 39197  97.9616  73.6890 0026846 323.8365  36.1030 14.78749728388355
HISAKI (SPRINT-A)       
1 39253U 13049A   20252.16114194  .00000087  00000-0  27225-4 0  9994
2 39253  29.7198 133.9833 0137491 212.0048 147.2111 13.55227542346277
CASSIOPE                
1 39265U 13055A   20252.53545999  .00003594  00000-0  99324-4 0  9991
2 39265  80.9663 227.5433 0660178  60.0210 306.4822 14.29774539359678
STSAT-3                 
1 39422U 13066G   20252.59050720 -.00000018  00000-0  36276-5 0  9994
2 39422  97.5066 281.1529 0021423 277.3283  82.5500 14.89854956369510
SWARM B                 
1 39451U 13067A   20252.51767573  .00000265  00000-0  10105-4 0  9995
2 39451  87.7477 254.9268 0001570  99.6733 260.4690 15.21778534362595
SWARM A                 
1 39452U 13067B   20252.57513735  .00000857  00000-0  17362-4 0  9990
2 39452  87.3568 100.4702 0003533  83.6444 276.5216 15.44695259382012
SWARM C                 
1 39453U 13067C   20252.57506246  .00000849  00000-0  17196-4 0  9996
2 39453  87.3422 101.2593 0003530  83.6817 276.4842 15.44695938381972
BRITE-CA1 (TORONTO)     
1 40020U 14033L   20252.50891820  .00000027  00000-0  12789-4 0  9991
2 40020  97.7324  75.9690 0087663 166.7358 193.6182 14.66658004332820
OCO 2                   
1 40059U 14035A   20252.54980298  .00000025  00000-0  15537-4 0  9999
2 40059  98.2062 192.0941 0001403  76.7675 283.3680 14.57113140329123
BRITE-PL2 (HEWELIUSZ)   
1 40119U 14049B   20252.49524715  .00000105  00000-0  18929-4 0  9990
2 40119  97.8949 343.8989 0017084 193.1502 166.9270 14.84530402328014
RESURS P2               
1 40360U 14087A   20252.50179490  .00000540  00000-0  18948-4 0  9992
2 40360  97.2444 339.6877 0007547 243.5088 172.7802 15.33641990319046
MMS 1                   
1 40482U 15011A   20249.29100759 -.00001525  00000-0  00000+0 0  9999
2 40482  30.0279 119.7665 8547280  23.6330  34.0470  0.28646897 11445
MMS 2                   
1 40483U 15011B   20250.31044468 -.00001524  00000-0  00000+0 0  9998
2 40483  30.0675 119.7568 8545153  23.6335 139.2142  0.28668701 11420
MMS 3                   
1 40484U 15011C   20251.25963485 -.00001533  00000-0  00000-0 0  9993
2 40484  30.1004 119.7444 8547571  23.6637 237.1127  0.28664644 11425
MMS 4                   
1 40485U 15011D   20252.25966006 -.00001543  00000-0  00000+0 0  9997
2 40485  30.1199 119.7701 8547105  23.6576 340.2330  0.28661828 11436
ASTROSAT                
1 40930U 15052A   20252.25861894  .00000721  00000-0  12209-4 0  9991
2 40930   5.9965 112.0795 0008520 355.9897   4.0162 14.76328546267473
DAMPE                   
1 41173U 15078A   20252.50373932  .00000056  00000-0  51999-5 0  9999
2 41173  97.3292 244.6091 0012864 325.5575 148.4026 15.23896171263042
PISAT                   
1 41784U 16059B   20252.42992128  .00000047  00000-0  17972-4 0  9994
2 41784  98.0109 306.6377 0032996  53.6690 306.7551 14.63535827211042
HXMT (HUIYAN)           
1 42758U 17034A   20252.55182069  .00000192  00000-0  25657-4 0  9999
2 42758  43.0197 300.1112 0010023 197.7946 311.3293 15.08884452178428
FLYING LAPTOP           
1 42831U 17042G   20252.60533599  .00000183  00000-0  23735-4 0  9999
2 42831  97.5087 130.5798 0014540  14.3504 345.8125 14.91153913171688
PICSAT                  
1 43132U 18004X   20252.14865965  .00001141  00000-0  49146-4 0  9996
2 43132  97.4413 322.9665 0011018 118.6990 241.5356 15.24600203147653
ZHANGZHENG-1 (CSES)     
1 43194U 18015C   20252.53863605  .00000963  00000-0  46400-4 0  9999
2 43194  97.4468  16.5778 0015418 174.9081 249.8534 15.21064576144296
ICON                    
1 44628U 19068A   20252.18226099  .00000430  00000-0  21978-4 0  9994
2 44628  26.9890 213.7755 0019273 148.0552 212.1177 14.91728368 49796
